OBJECT_NAME,OBJECT_ID,EPOCH,MEAN_MOTION,ECCENTRICITY,INCLINATION,RA_OF_ASC_NODE,ARG_OF_PERICENTER,MEAN_ANOMALY,EPHEMERIS_TYPE,CLASSIFICATION_TYPE,NORAD_CAT_ID,ELEMENT_SET_NO,REV_AT_EPOCH,BSTAR,MEAN_MOTION_DOT,MEAN_MOTION_DDOT,GROUP
STARLINK-35691,2025-257AA,2026-05-03T06:31:10.722432,15.3441898,0.00010795,53.1609,323.2471,92.7263,267.3863,0,U,66404,999,2809,0.0010572643,0.00035536,0.0,Active Satellites
STARLINK-35683,2025-257AB,2026-05-03T06:55:23.967840,15.30203008,9.549e-05,53.1613,323.3507,98.6811,261.4298,0,U,66405,999,2802,0.00093213848,0.00027352,0.0,Active Satellites
STARLINK-34840,2025-257AC,2026-05-03T06:22:05.349216,15.34409286,0.00011596,53.159,323.2026,86.4836,273.6299,0,U,66406,999,2803,0.00066903445,0.00022302,0.0,Active Satellites
STARLINK-35686,2025-257AD,2026-05-03T06:19:03.624096,15.34402704,9.456e-05,53.1607,323.1924,82.837,277.274,0,U,66407,999,2809,0.001068971,0.00035917,0.0,Active Satellites
STARLINK-35679,2025-257AE,2026-05-02T22:36:08.368128,15.3440421,8.94e-05,53.1608,324.7376,98.624,261.4864,0,U,66408,999,2804,0.00096906,0.00032511,0.0,Active Satellites
CHUTIAN-2 A,2025-256A,2026-05-02T01:52:35.734368,14.50155978,0.00147482,98.2523,189.1892,111.1625,249.1147,0,U,66409,999,2521,0.00013746235,4.91e-06,0.0,Active Satellites
CHUTIAN-2 B,2025-256B,2026-05-02T04:46:54.814656,14.50149249,0.0015421,98.2558,189.3975,113.9186,246.3626,0,U,66410,999,2523,0.00015366,5.54e-06,0.0,Active Satellites
HULIANWANG DIGUI-96,2025-258A,2026-05-03T04:09:02.937024,13.2932233,8.755e-05,50.0035,97.0787,324.3994,35.682,0,U,66412,999,2374,3.0337848e-05,-1.1e-06,0.0,Active Satellites
HULIANWANG DIGUI-97,2025-258B,2026-05-03T06:45:20.014560,13.29321636,9.675e-05,50.0,96.9323,331.7465,28.3354,0,U,66413,999,2375,6.9847526e-05,-9.2e-07,0.0,Active Satellites
HULIANWANG DIGUI-98,2025-258C,2026-05-03T04:44:57.118848,13.29318075,0.00010766,50.0038,97.2165,333.451,26.6307,0,U,66414,999,2374,6.6770129e-05,-9.3e-07,0.0,Active Satellites
HULIANWANG DIGUI-99,2025-258D,2026-05-03T05:45:15.381504,13.29321337,8.755e-05,50.0035,96.767,332.313,27.7695,0,U,66415,999,2374,1.6657448e-05,-1.16e-06,0.0,Active Satellites
HULIANWANG DIGUI-100,2025-258E,2026-05-03T04:32:54.411360,13.29317938,8.174e-05,50.0041,97.176,333.5648,26.5183,0,U,66416,999,2375,4.0354711e-05,-1.05e-06,0.0,Active Satellites
HULIANWANG DIGUI-101,2025-258F,2026-05-03T04:20:57.400224,13.29321988,8.142e-05,49.9988,97.0524,323.1531,36.9285,0,U,66417,999,2375,4.125268e-05,-1.05e-06,0.0,Active Satellites
HULIANWANG DIGUI-102,2025-258G,2026-05-03T05:33:00.479520,13.29318175,8.987e-05,50.0004,96.6687,325.2253,34.8561,0,U,66418,999,2375,2.7836426e-05,-1.11e-06,0.0,Active Satellites
HULIANWANG DIGUI-103,2025-258H,2026-05-03T05:21:02.495520,13.29321147,7.892e-05,49.9996,96.6147,336.181,23.9026,0,U,66419,999,2375,4.9809224e-05,-1.01e-06,0.0,Active Satellites
HULIANWANG DIGUI-104,2025-258J,2026-05-03T05:09:04.585824,13.29321353,9.257e-05,50.0012,96.6016,328.7006,31.3811,0,U,66420,999,2374,4.2561654e-05,-1.04e-06,0.0,Active Satellites
STARLINK-35617,2025-259A,2026-05-03T06:03:44.628768,15.27582678,0.00012285,43.003,326.4134,263.4374,96.6338,0,U,66422,999,2783,0.0012430181,0.00034104,0.0,Active Satellites
STARLINK-35618,2025-259B,2026-05-03T05:56:20.809248,15.27579301,0.00014589,43.0004,326.375,282.2546,77.8142,0,U,66423,999,2783,0.00071640451,0.00019504,0.0,Active Satellites
STARLINK-35588,2025-259C,2026-05-02T22:01:51.600576,15.27567773,9.74e-05,43.0012,328.2012,266.1738,93.9002,0,U,66424,999,2778,0.00065363,0.00017761,0.0,Active Satellites
STARLINK-35555,2025-259D,2026-05-02T21:56:18.393792,15.2759985,0.0001331,43.0005,328.1674,263.3977,96.6723,0,U,66425,999,2778,0.0010993,0.00030131,0.0,Active Satellites
STARLINK-35589,2025-259E,2026-05-02T21:52:36.171264,15.27574328,0.000171,42.998,328.149,259.3417,100.7242,0,U,66426,999,2778,0.00077563,0.00021139,0.0,Active Satellites
STARLINK-35611,2025-259F,2026-05-02T21:47:05.043264,15.27587329,0.0001054,43.0009,328.1183,251.8991,108.1746,0,U,66427,999,2778,0.001676,0.00046158,0.0,Active Satellites
STARLINK-35610,2025-259G,2026-05-02T21:41:30.467040,15.27577913,0.0001576,43.0029,328.089,275.9551,84.1121,0,U,66428,999,2778,0.0009395,0.00025679,0.0,Active Satellites
STARLINK-35533,2025-259H,2026-05-02T20:01:47.400960,15.27587966,0.00017652,43.0019,328.4305,250.3076,109.7585,0,U,66429,999,2777,0.0010612815,0.00029065,0.0,Active Satellites
STARLINK-35470,2025-259J,2026-05-02T23:04:33.132576,15.27574543,0.00016485,43.0019,327.6646,244.2313,115.8369,0,U,66430,999,2779,0.00035302416,9.463e-05,0.0,Active Satellites
STARLINK-35439,2025-259K,2026-05-02T19:52:32.395872,15.27582996,0.00014267,43.0039,328.3801,237.2007,122.8708,0,U,66431,999,2777,0.00067812668,0.00018447,0.0,Active Satellites
STARLINK-35446,2025-259L,2026-05-02T22:59:00.350880,15.27578615,0.0001284,43.0018,327.6324,245.7307,114.341,0,U,66432,999,2779,0.00089892755,0.00024556,0.0,Active Satellites
STARLINK-35457,2025-259M,2026-05-03T06:46:05.340000,15.27585879,0.00011872,42.9994,325.7655,269.8058,90.2657,0,U,66433,999,2784,0.00063611739,0.00017287,0.0,Active Satellites
STARLINK-35389,2025-259N,2026-05-03T06:44:14.343648,15.27580337,0.00015246,43.0012,325.7538,256.8624,103.2058,0,U,66434,999,2784,0.00079278514,0.00021618,0.0,Active Satellites
STARLINK-35502,2025-259P,2026-05-03T06:35:00.049632,15.27606567,4.262e-05,42.9976,325.7032,313.204,46.8776,0,U,66435,999,2784,0.00079921265,0.00021813,0.0,Active Satellites
STARLINK-35501,2025-259Q,2026-05-03T06:42:23.204736,15.27585473,0.00016719,43.0029,325.7429,264.9567,95.1094,0,U,66436,999,2784,0.00074008462,0.00020163,0.0,Active Satellites
STARLINK-35474,2025-259R,2026-05-03T05:58:11.188704,15.27589359,0.00021406,43.0049,326.375,259.782,100.279,0,U,66437,999,2783,0.00074497683,0.00020301,0.0,Active Satellites
STARLINK-34681,2025-259S,2026-05-02T23:32:19.032576,15.27587912,0.00014017,43.0005,327.8011,266.3022,93.7669,0,U,66438,999,2768,0.001152959,0.00031609,0.0,Active Satellites
STARLINK-35327,2025-259T,2026-05-03T06:33:09.237312,15.27611512,0.00021717,43.0031,325.6925,270.1474,89.9129,0,U,66439,999,2784,0.0016653612,0.00045896,0.0,Active Satellites
STARLINK-35405,2025-259U,2026-05-02T21:50:44.984832,15.27583149,0.0001847,43.0027,328.133,255.4546,104.6101,0,U,66440,999,2778,0.00061173,0.00016611,0.0,Active Satellites
STARLINK-35426,2025-259V,2026-05-02T23:13:48.133344,15.27592931,0.00021939,43.0036,327.7042,271.3009,88.7592,0,U,66441,999,2779,0.0011014159,0.00030183,0.0,Active Satellites
STARLINK-34724,2025-259W,2026-05-02T21:04:43.831776,15.27535357,0.00010051,42.9978,328.7524,269.2106,90.8631,0,U,66442,999,2777,0.00080317945,0.00021875,0.0,Active Satellites
STARLINK-35219,2025-259X,2026-05-02T22:33:18.645696,15.27573529,0.00019301,43.0054,328.3542,287.9733,72.0908,0,U,66443,999,2767,0.00073759294,0.00020086,0.0,Active Satellites
STARLINK-35360,2025-259Y,2026-05-03T06:38:41.569728,15.27581683,0.00013275,43.002,325.72,284.947,75.1235,0,U,66444,999,2784,0.00076934847,0.0002097,0.0,Active Satellites
STARLINK-34698,2025-259Z,2026-05-03T06:18:32.971968,15.27577435,7.31e-05,42.9978,326.481,284.0854,75.9916,0,U,66445,999,2772,0.00085258691,0.00023271,0.0,Active Satellites
STARLINK-34986,2025-259AA,2026-05-03T06:09:17.590176,15.27576107,0.00016028,42.9998,326.4297,257.1923,102.875,0,U,66446,999,2783,0.00076290106,0.00020788,0.0,Active Satellites
STARLINK-34851,2025-259AB,2026-05-02T22:37:00.732576,15.27574668,0.0001325,43.0028,328.3729,268.4596,91.6104,0,U,66447,999,2767,0.00081579,0.00022251,0.0,Active Satellites
STARLINK-35355,2025-259AC,2026-05-03T06:20:23.809344,15.27575594,0.00014874,43.0003,326.4856,287.864,72.2049,0,U,66448,999,2783,0.00078211061,0.00021319,0.0,Active Satellites
STARLINK-34720,2025-259AD,2026-05-03T06:12:59.537088,15.27583552,0.00013878,43.0041,326.4458,276.938,83.1313,0,U,66449,999,2772,0.001121202,0.00030723,0.0,Active Satellites
STARLINK-35334,2025-259AE,2026-05-03T06:07:26.808096,15.27579142,5.691e-05,42.9956,326.4195,289.2999,70.7791,0,U,66450,999,2783,0.0011805026,0.00032365,0.0,Active Satellites
VIASAT-3 F2,2025-261A,2026-05-02T19:46:48.041760,1.00269587,0.00022518,0.0208,61.2547,64.2101,313.0124,0,U,66454,999,232,0.0,0.0,0.0,Active Satellites
STARLINK-35643,2025-262A,2026-05-03T00:45:59.833728,15.2759363,0.00019259,43.0059,349.6003,255.5688,104.495,0,U,66456,999,2721,0.0010114085,0.00027686,0.0,Active Satellites
STARLINK-35466,2025-262B,2026-05-03T00:33:02.860128,15.2757879,0.00023179,43.007,349.5281,251.9296,108.1304,0,U,66457,999,2721,0.0012118214,0.00033235,0.0,Active Satellites
STARLINK-35684,2025-262C,2026-05-03T00:36:44.758656,15.27593672,0.00019973,43.0036,349.5539,258.1192,101.9436,0,U,66458,999,2721,0.001231135,0.00033786,0.0,Active Satellites
STARLINK-35449,2025-262D,2026-05-03T00:23:47.073984,15.27603998,0.00010066,43.0046,349.4802,235.3224,124.7533,0,U,66459,999,2721,0.0010384471,0.00028445,0.0,Active Satellites
STARLINK-35424,2025-262E,2026-05-02T22:21:52.228800,15.27590438,0.00013914,43.0035,349.703,262.4891,97.5803,0,U,66460,999,2720,0.0010615068,0.00029073,0.0,Active Satellites
STARLINK-35132,2025-262F,2026-05-02T23:52:20.559360,15.2757279,0.00017266,43.001,349.3135,277.6321,82.4334,0,U,66461,999,2721,0.0010107709,0.00027651,0.0,Active Satellites
STARLINK-35499,2025-262G,2026-05-02T23:39:23.138208,15.27588669,0.00015048,43.0014,349.25,269.0061,91.0618,0,U,66462,999,2721,0.0010830827,0.0002967,0.0,Active Satellites
STARLINK-35463,2025-262H,2026-05-03T00:20:05.762976,15.27595558,0.00013691,43.0033,349.461,259.5238,100.546,0,U,66463,999,2721,0.0012695383,0.00034855,0.0,Active Satellites
STARLINK-35435,2025-262J,2026-05-02T23:26:26.299392,15.27583234,0.00014929,43.0007,349.1724,275.2254,84.8427,0,U,66464,999,2721,0.00096357082,0.00026351,0.0,Active Satellites
STARLINK-35448,2025-262K,2026-05-03T00:34:54.064704,15.27579019,0.00015039,43.0047,349.5381,265.9734,94.0946,0,U,66465,999,2721,0.0011959726,0.00032794,0.0,Active Satellites
